start=new Date('2023-06-27T00:00:00.000Z').valueOf();
sats=[{"RCS_SIZE":"LARGE","COUNTRY_CODE":"US","EPHEMERIS_TYPE":"0","OBJECT_ID":"2022-001AR","INCLINATION":"53.2171","GP_ID":"234574301","MEAN_ELEMENT_THEORY":"SGP4","MEAN_MOTION_DDOT":"0.0000000000000","SEMIMAJOR_AXIS":"6917.890","TIME_SYSTEM":"UTC","ECCENTRICITY":"0.00009110","APOAPSIS":"540.385","SITE":"AFETR","PERIAPSIS":"539.125","MEAN_MOTION_DOT":"-0.00000280","REV_AT_EPOCH":"8254","TLE_LINE1":"1 50842U 22001AR  23177.69898511 -.00000280  00000-0  48222-6 0  9996","OBJECT_TYPE":"PAYLOAD","CENTER_NAME":"EARTH","LAUNCH_DATE":"2022-01-06","MEAN_ANOMALY":"281.9665","NORAD_CAT_ID":"50842","DECAY_DATE":null,"ELEMENT_SET_NO":"999","ARG_OF_PERICENTER":"78.1430","OBJECT_NAME":"STARLINK-3302","PERIOD":"95.438","MEAN_MOTION":"15.08836818","CLASSIFICATION_TYPE":"U","FILE":"3943683","TLE_LINE2":"2 50842  53.2171 289.8957 0000911  78.1430 281.9665 15.08836818 82546","RA_OF_ASC_NODE":"289.8957","EPOCH":"2023-06-26T16:46:32.313504","BSTAR":"0.00000048222000","REF_FRAME":"TEME"},{"EPOCH":"2023-06-26T01:24:28.368288","BSTAR":"0.00010539000000","CLASSIFICATION_TYPE":"U","FILE":"3943105","TLE_LINE2":"2 50843  53.2169 292.7682 0001323  84.9232 275.1911 15.08834083 82366","RA_OF_ASC_NODE":"292.7682","REF_FRAME":"TEME","ELEMENT_SET_NO":"999","ARG_OF_PERICENTER":"84.9232","OBJECT_NAME":"STARLINK-3325","NORAD_CAT_ID":"50843","MEAN_ANOMALY":"275.1911","DECAY_DATE":null,"PERIOD":"95.438","MEAN_MOTION":"15.08834083","SITE":"AFETR","PERIAPSIS":"538.848","MEAN_MOTION_DOT":"0.00001390","TIME_SYSTEM":"UTC","SEMIMAJOR_AXIS":"6917.898","ECCENTRICITY":"0.00013230","APOAPSIS":"540.679","REV_AT_EPOCH":"8236","TLE_LINE1":"1 50843U 22001AS  23177.05866167  .00001390  00000-0  10539-3 0  9998","OBJECT_TYPE":"PAYLOAD","CENTER_NAME":"EARTH","LAUNCH_DATE":"2022-01-06","EPHEMERIS_TYPE":"0","RCS_SIZE":"LARGE","COUNTRY_CODE":"US","GP_ID":"234560388","MEAN_ELEMENT_THEORY":"SGP4","MEAN_MOTION_DDOT":"0.0000000000000","OBJECT_ID":"2022-001AS","INCLINATION":"53.2169"},{"REF_FRAME":"TEME","CLASSIFICATION_TYPE":"U","TLE_LINE2":"2 50844  53.2173 289.9464 0001048  78.9353 281.1757 15.08831519 82545","FILE":"3943684","RA_OF_ASC_NODE":"289.9464","EPOCH":"2023-06-26T16:30:38.660544","BSTAR":"0.00000381410000","MEAN_MOTION":"15.08831519","PERIOD":"95.438","MEAN_ANOMALY":"281.1757","NORAD_CAT_ID":"50844","DECAY_DATE":null,"ELEMENT_SET_NO":"999","ARG_OF_PERICENTER":"78.9353","OBJECT_NAME":"STARLINK-3326","OBJECT_TYPE":"PAYLOAD","TLE_LINE1":"1 50844U 22001AT  23177.68794746 -.00000227  00000-0  38141-5 0  9991","REV_AT_EPOCH":"8254","CENTER_NAME":"EARTH","LAUNCH_DATE":"2022-01-06","TIME_SYSTEM":"UTC","SEMIMAJOR_AXIS":"6917.906","APOAPSIS":"540.496","ECCENTRICITY":"0.00010480","SITE":"AFETR","MEAN_MOTION_DOT":"-0.00000227","PERIAPSIS":"539.046","OBJECT_ID":"2022-001AT","INCLINATION":"53.2173","GP_ID":"234574807","MEAN_ELEMENT_THEORY":"SGP4","MEAN_MOTION_DDOT":"0.0000000000000","COUNTRY_CODE":"US","RCS_SIZE":"LARGE","EPHEMERIS_TYPE":"0"},{"REF_FRAME":"TEME","BSTAR":"0.00003436500000","EPOCH":"2023-06-26T08:01:55.212384","TLE_LINE2":"2 50845  53.2177 291.5299 0001158  99.9606 260.1517 15.08831256 82449","FILE":"3943397","RA_OF_ASC_NODE":"291.5299","CLASSIFICATION_TYPE":"U","MEAN_MOTION":"15.08831256","PERIOD":"95.438","OBJECT_NAME":"STARLINK-3230","ELEMENT_SET_NO":"999","ARG_OF_PERICENTER":"99.9606","DECAY_DATE":null,"NORAD_CAT_ID":"50845","MEAN_ANOMALY":"260.1517","LAUNCH_DATE":"2022-01-06","CENTER_NAME":"EARTH","OBJECT_TYPE":"PAYLOAD","TLE_LINE1":"1 50845U 22001AU  23177.33466681  .00000259  00000-0  34365-4 0  9995","REV_AT_EPOCH":"8244","MEAN_MOTION_DOT":"0.00000259","PERIAPSIS":"538.971","SITE":"AFETR","APOAPSIS":"540.573","ECCENTRICITY":"0.00011580","SEMIMAJOR_AXIS":"6917.907","TIME_SYSTEM":"UTC","MEAN_MOTION_DDOT":"0.0000000000000","MEAN_ELEMENT_THEORY":"SGP4","GP_ID":"234567887","INCLINATION":"53.2177","OBJECT_ID":"2022-001AU","EPHEMERIS_TYPE":"0","COUNTRY_CODE":"US","RCS_SIZE":"LARGE"},{"REF_FRAME":"TEME","TLE_LINE2":"2 50846  53.2175 291.8125 0001057  89.7343 270.3771 15.08831697 82480","RA_OF_ASC_NODE":"291.8125","FILE":"3943412","CLASSIFICATION_TYPE":"U","BSTAR":"-0.00000099977000","EPOCH":"2023-06-26T07:08:56.514912","PERIOD":"95.438","MEAN_MOTION":"15.08831697","DECAY_DATE":null,"MEAN_ANOMALY":"270.3771","NORAD_CAT_ID":"50846","OBJECT_NAME":"STARLINK-3308","ELEMENT_SET_NO":"999","ARG_OF_PERICENTER":"89.7343","LAUNCH_DATE":"2022-01-06","CENTER_NAME":"EARTH","TLE_LINE1":"1 50846U 22001AV  23177.29787633 -.00000304  00000-0 -99977-6 0  9999","REV_AT_EPOCH":"8248","OBJECT_TYPE":"PAYLOAD","APOAPSIS":"540.502","ECCENTRICITY":"0.00010570","SEMIMAJOR_AXIS":"6917.906","TIME_SYSTEM":"UTC","PERIAPSIS":"539.040","MEAN_MOTION_DOT":"-0.00000304","SITE":"AFETR","INCLINATION":"53.2175","OBJECT_ID":"2022-001AV","MEAN_MOTION_DDOT":"0.0000000000000","MEAN_ELEMENT_THEORY":"SGP4","GP_ID":"234567896","RCS_SIZE":"LARGE","COUNTRY_CODE":"US","EPHEMERIS_TYPE":"0"},{"EPHEMERIS_TYPE":"0","COUNTRY_CODE":"US","RCS_SIZE":"LARGE","GP_ID":"234574804","MEAN_ELEMENT_THEORY":"SGP4","MEAN_MOTION_DDOT":"0.0000000000000","OBJECT_ID":"2022-001AW","INCLINATION":"53.2174","SITE":"AFETR","MEAN_MOTION_DOT":"-0.00000241","PERIAPSIS":"539.137","SEMIMAJOR_AXIS":"6917.882","TIME_SYSTEM":"UTC","APOAPSIS":"540.357","ECCENTRICITY":"0.00008820","OBJECT_TYPE":"PAYLOAD","REV_AT_EPOCH":"8244","TLE_LINE1":"1 50847U 22001AW  23177.57849621 -.00000241  00000-0  29202-5 0  9999","CENTER_NAME":"EARTH","LAUNCH_DATE":"2022-01-06","ARG_OF_PERICENTER":"82.9296","ELEMENT_SET_NO":"999","OBJECT_NAME":"STARLINK-3319","MEAN_ANOMALY":"277.1796","NORAD_CAT_ID":"50847","DECAY_DATE":null,"MEAN_MOTION":"15.08839584","PERIOD":"95.438","EPOCH":"2023-06-26T13:53:02.072544","BSTAR":"0.00000292020000","CLASSIFICATION_TYPE":"U","RA_OF_ASC_NODE":"290.4434","TLE_LINE2":"2 50847  53.2174 290.4434 0000882  82.9296 277.1796 15.08839584 82446","FILE":"3943684","REF_FRAME":"TEME"},{"REF_FRAME":"TEME","BSTAR":"0.00012406000000","EPOCH":"2023-06-26T16:20:02.559552","TLE_LINE2":"2 50848  53.2179 289.9816 0001000  82.2308 277.8798 15.08833320 82574","FILE":"3943685","RA_OF_ASC_NODE":"289.9816","CLASSIFICATION_TYPE":"U","PERIOD":"95.438","MEAN_MOTION":"15.08833320","OBJECT_NAME":"STARLINK-3315","ARG_OF_PERICENTER":"82.2308","ELEMENT_SET_NO":"999","DECAY_DATE":null,"NORAD_CAT_ID":"50848","MEAN_ANOMALY":"277.8798","CENTER_NAME":"EARTH","LAUNCH_DATE":"2022-01-06","REV_AT_EPOCH":"8257","TLE_LINE1":"1 50848U 22001AX  23177.68058518  .00001687  00000-0  12406-3 0  9999","OBJECT_TYPE":"PAYLOAD","PERIAPSIS":"539.074","MEAN_MOTION_DOT":"0.00001687","SITE":"AFETR","ECCENTRICITY":"0.00010000","APOAPSIS":"540.458","TIME_SYSTEM":"UTC","SEMIMAJOR_AXIS":"6917.901","MEAN_MOTION_DDOT":"0.0000000000000","MEAN_ELEMENT_THEORY":"SGP4","GP_ID":"234574322","INCLINATION":"53.2179","OBJECT_ID":"2022-001AX","EPHEMERIS_TYPE":"0","RCS_SIZE":"LARGE","COUNTRY_CODE":"US"},{"REF_FRAME":"TEME","BSTAR":"0.00006842100000","EPOCH":"2023-06-26T15:00:33.436800","TLE_LINE2":"2 50849  53.2175 290.2259 0000894  79.7793 280.3300 15.08830453 82455","RA_OF_ASC_NODE":"290.2259","FILE":"3943685","CLASSIFICATION_TYPE":"U","MEAN_MOTION":"15.08830453","PERIOD":"95.438","OBJECT_NAME":"STARLINK-3311","ARG_OF_PERICENTER":"79.7793","ELEMENT_SET_NO":"999","DECAY_DATE":null,"NORAD_CAT_ID":"50849","MEAN_ANOMALY":"280.3300","CENTER_NAME":"EARTH","LAUNCH_DATE":"2022-01-06","OBJECT_TYPE":"PAYLOAD","REV_AT_EPOCH":"8245","TLE_LINE1":"1 50849U 22001AY  23177.62538700  .00000801  00000-0  68421-4 0  9996","MEAN_MOTION_DOT":"0.00000801","PERIAPSIS":"539.156","SITE":"AFETR","ECCENTRICITY":"0.00008940","APOAPSIS":"540.393","TIME_SYSTEM":"UTC","SEMIMAJOR_AXIS":"6917.910","MEAN_MOTION_DDOT":"0.0000000000000","MEAN_ELEMENT_THEORY":"SGP4","GP_ID":"234574816","INCLINATION":"53.2175","OBJECT_ID":"2022-001AY","EPHEMERIS_TYPE":"0","COUNTRY_CODE":"US","RCS_SIZE":"LARGE"},{"BSTAR":"0.00008558500000","EPOCH":"2023-06-26T08:44:18.472416","TLE_LINE2":"2 50850  53.2163 251.3975 0000939  83.9892 276.1208 15.08833640 83052","RA_OF_ASC_NODE":"251.3975","FILE":"3943398","CLASSIFICATION_TYPE":"U","REF_FRAME":"TEME","OBJECT_NAME":"STARLINK-3312","ELEMENT_SET_NO":"999","ARG_OF_PERICENTER":"83.9892","DECAY_DATE":null,"NORAD_CAT_ID":"50850","MEAN_ANOMALY":"276.1208","PERIOD":"95.438","MEAN_MOTION":"15.08833640","PERIAPSIS":"539.115","MEAN_MOTION_DOT":"0.00001074","SITE":"AFETR","APOAPSIS":"540.414","ECCENTRICITY":"0.00009390","TIME_SYSTEM":"UTC","SEMIMAJOR_AXIS":"6917.900","LAUNCH_DATE":"2022-01-06","CENTER_NAME":"EARTH","TLE_LINE1":"1 50850U 22001AZ  23177.36410269  .00001074  00000-0  85585-4 0  9991","REV_AT_EPOCH":"8305","OBJECT_TYPE":"PAYLOAD","EPHEMERIS_TYPE":"0","RCS_SIZE":"LARGE","COUNTRY_CODE":"US","MEAN_MOTION_DDOT":"0.0000000000000","MEAN_ELEMENT_THEORY":"SGP4","GP_ID":"234567915","INCLINATION":"53.2163","OBJECT_ID":"2022-001AZ"},{"BSTAR":"0.00011874000000","EPOCH":"2023-06-26T00:22:15.462336","RA_OF_ASC_NODE":"292.9739","TLE_LINE2":"2 50851  53.2163 292.9739 0000908  77.3154 282.7939 15.08836548 82442","FILE":"3943116","CLASSIFICATION_TYPE":"U","REF_FRAME":"TEME","OBJECT_NAME":"STARLINK-3314","ARG_OF_PERICENTER":"77.3154","ELEMENT_SET_NO":"999","DECAY_DATE":null,"NORAD_CAT_ID":"50851","MEAN_ANOMALY":"282.7939","PERIOD":"95.438","MEAN_MOTION":"15.08836548","PERIAPSIS":"539.128","MEAN_MOTION_DOT":"0.00001602","SITE":"AFETR","APOAPSIS":"540.384","ECCENTRICITY":"0.00009080","SEMIMAJOR_AXIS":"6917.891","TIME_SYSTEM":"UTC","LAUNCH_DATE":"2022-01-06","CENTER_NAME":"EARTH","REV_AT_EPOCH":"8244","TLE_LINE1":"1 50851U 22001BA  23177.01545674  .00001602  00000-0  11874-3 0  9999","OBJECT_TYPE":"PAYLOAD","EPHEMERIS_TYPE":"0","RCS_SIZE":"LARGE","COUNTRY_CODE":"US","MEAN_ELEMENT_THEORY":"SGP4","MEAN_MOTION_DDOT":"0.0000000000000","GP_ID":"234560931","INCLINATION":"53.2163","OBJECT_ID":"2022-001BA"}];
